H1 CPF 01  gfz 2021 04 20 00  6101 tandemx   
H2 1003001  6202 36605    2021 04 20 00 59 42 2021 04 25 00 00 42   120 1 1  0 0 0
H9
10 0 59328  22302.000000  0   -2289374.475    943774.416   6417220.983
10 0 59328  22422.000000  0   -1403068.572    948924.162   6666075.257
10 0 59328  22542.000000  0    -492472.132    921791.161   6797780.131
10 0 59328  22662.000000  0     425961.403    862569.596   6810038.386
10 0 59328  22782.000000  0    1335656.190    772300.340   6702637.194
10 0 59328  22902.000000  0    2220211.879    652852.951   6477451.689
10 0 59328  23022.000000  0    3063698.409    506888.433   6138414.824
10 0 59328  23142.000000  0    3850944.488    337803.269   5691453.573
10 0 59328  23262.000000  0    4567813.719    149655.695   5144390.702
10 0 59328  23382.000000  0    5201463.615    -52924.892   4506813.847
10 0 59328  23502.000000  0    5740583.558   -264843.513   3789913.059
10 0 59328  23622.000000  0    6175607.039   -480657.229   3006287.857
10 0 59328  23742.000000  0    6498892.414   -694703.146   2169725.624
10 0 59328  23862.000000  0    6704865.235   -901233.942   1294955.400
10 0 59328  23982.000000  0    6790121.285  -1094557.593    397384.244
10 0 59328  24102.000000  0    6753488.474  -1269177.436   -507181.892
10 0 59328  24222.000000  0    6596041.174  -1419929.315  -1402826.561
10 0 59328  24342.000000  0    6321069.509  -1542111.573  -2273811.214
10 0 59328  24462.000000  0    5934003.946  -1631605.085  -3104859.032
10 0 59328  24582.000000  0    5442298.196  -1684980.369  -3881426.617
10 0 59328  24702.000000  0    4855274.478  -1699588.727  -4589958.831
10 0 59328  24822.000000  0    4183935.682  -1673635.834  -5218122.371
10 0 59328  24942.000000  0    3440748.403  -1606237.128  -5755014.151
10 0 59328  25062.000000  0    2639402.949  -1497453.198  -6191340.357
10 0 59328  25182.000000  0    1794557.484  -1348304.353  -6519566.149
10 0 59328  25302.000000  0     921568.721  -1160764.896  -6734035.444
10 0 59328  25422.000000  0      36215.080   -937738.374  -6831058.002
10 0 59328  25542.000000  0    -845583.364   -683013.061  -6808965.693
10 0 59328  25662.000000  0   -1708044.189   -401198.970  -6668138.182
10 0 59328  25782.000000  0   -2535799.027    -97646.239  -6410996.657
10 0 59328  25902.000000  0   -3314160.827    221652.872  -6041965.794
10 0 59328  26022.000000  0   -4029380.203    550177.786  -5567406.866
10 0 59328  26142.000000  0   -4668889.038    881007.514  -4995518.696
10 0 59328  26262.000000  0   -5221524.982   1206960.392  -4336208.371
10 0 59328  26382.000000  0   -5677735.012   1520745.262  -3600930.943
10 0 59328  26502.000000  0   -6029750.629   1815119.208  -2802498.712
10 0 59328  26622.000000  0   -6271732.049   2083048.292  -1954863.657
10 0 59328  26742.000000  0   -6399877.403   2317868.699  -1072875.745
10 0 59328  26862.000000  0   -6412493.246   2513443.899   -172020.337
10 0 59328  26982.000000  0   -6310023.070   2664313.086    731860.053
10 0 59328  27102.000000  0   -6095031.992   2765827.669   1622852.436
10 0 59328  27222.000000  0   -5772148.618   2814272.387   2485262.677
10 0 59328  27342.000000  0   -5347964.936   2806966.715   3303900.397
10 0 59328  27462.000000  0   -4830898.019   2742344.493   4064354.231
10 0 59328  27582.000000  0   -4231015.251   2620009.313   4753249.973
10 0 59328  27702.000000  0   -3559830.526   2440765.591   5358486.421
10 0 59328  27822.000000  0   -2830076.010   2206624.883   5869446.811
10 0 59328  27942.000000  0   -2055452.881   1920786.980   6277181.997
10 0 59328  28062.000000  0   -1250367.826   1587595.886   6574561.640
10 0 59328  28182.000000  0    -429661.266   1212472.309   6756391.602
10 0 59328  28302.000000  0     391666.306    801824.029   6819498.332
10 0 59328  28422.000000  0    1198727.734    362935.944   6762780.712
10 0 59328  28542.000000  0    1977017.783    -96158.612   6587227.923
10 0 59328  28662.000000  0    2712672.843   -566824.152   6295904.144
10 0 59328  28782.000000  0    3392718.619  -1039984.626   5893899.293
10 0 59328  28902.000000  0    4005302.177  -1506297.203   5388245.497
10 0 59328  29022.000000  0    4539902.728  -1956336.460   4787799.323
10 0 59328  29142.000000  0    4987518.111  -2380784.414   4103092.890
10 0 59328  29262.000000  0    5340825.172  -2770623.920   3346153.950
10 0 59328  29382.000000  0    5594307.910  -3117330.613   2530294.940
10 0 59328  29502.000000  0    5744348.973  -3413058.300   1669876.994
10 0 59328  29622.000000  0    5789284.889  -3650814.714    780053.708
10 0 59328  29742.000000  0    5729421.559  -3824621.777   -123503.210
10 0 59328  29862.000000  0    5567010.402  -3929656.523  -1024887.897
10 0 59328  29982.000000  0    5306184.392  -3962368.723  -1908250.247
10 0 59328  30102.000000  0    4952856.290  -3920571.742  -2758082.386
10 0 59328  30222.000000  0    4514582.223  -3803506.124  -3559496.269
10 0 59328  30342.000000  0    4000394.481  -3611873.471  -4298486.989
10 0 59328  30462.000000  0    3420608.365  -3347840.775  -4962175.933
10 0 59328  30582.000000  0    2786608.439  -3015014.888  -5539029.842
10 0 59328  30702.000000  0    2110620.121  -2618389.812  -6019051.491
10 0 59328  30822.000000  0    1405472.452  -2164269.116  -6393942.595
10 0 59328  30942.000000  0     684354.186  -1660162.369  -6657237.991
10 0 59328  31062.000000  0     -39431.224  -1114658.492  -6804406.088
10 0 59328  31182.000000  0    -752706.548   -537280.195  -6832917.498
10 0 59328  31302.000000  0   -1442654.591     61679.024  -6742283.269
10 0 59328  31422.000000  0   -2097043.369    671333.958  -6534061.833
10 0 59328  31542.000000  0   -2704437.763   1280400.211  -6211834.805
10 0 59328  31662.000000  0   -3254395.533   1877397.744  -5781152.342
10 0 59328  31782.000000  0   -3737646.522   2450862.905  -5249448.593
10 0 59328  31902.000000  0   -4146252.740   2989566.735  -4625925.286
10 0 59328  32022.000000  0   -4473744.334   3482734.637  -3921402.522
10 0 59328  32142.000000  0   -4715227.904   3920263.180  -3148140.766
10 0 59328  32262.000000  0   -4867466.756   4292930.254  -2319635.090
10 0 59328  32382.000000  0   -4928929.492   4592592.450  -1450383.228
10 0 59328  32502.000000  0   -4899806.064   4812365.898   -555632.175
10 0 59328  32622.000000  0   -4781989.250   4946785.198    348893.737
10 0 59328  32742.000000  0   -4579020.505   4991935.668   1247276.446
10 0 59328  32862.000000  0   -4296003.319   4945554.084   2123693.997
10 0 59328  32982.000000  0   -3939482.762   4807095.718   2962708.958
10 0 59328  33102.000000  0   -3517296.609   4577766.349   3749547.756
10 0 59328  33222.000000  0   -3038402.851   4260518.957   4470365.852
10 0 59328  33342.000000  0   -2512687.631   3860015.494   5112494.542
10 0 59328  33462.000000  0   -1950757.492   3382553.857   5664663.856
10 0 59328  33582.000000  0   -1363721.709   2835962.694   6117197.373
10 0 59328  33702.000000  0    -762969.584   2229466.617   6462176.218
10 0 59328  33822.000000  0    -159949.026   1573525.802   6693570.118
10 0 59328  33942.000000  0     434051.102    879653.086   6807337.863
10 0 59328  34062.000000  0    1008112.052    160210.552   6801492.805
10 0 59328  34182.000000  0    1551884.702   -571809.802   6676135.470
10 0 59328  34302.000000  0    2055775.523  -1303020.245   6433452.722
10 0 59328  34422.000000  0    2511115.900  -2019881.296   6077682.265
10 0 59328  34542.000000  0    2910313.208  -2708952.886   5615044.170
10 0 59328  34662.000000  0    3246980.134  -3357147.950   5053637.387
10 0 59328  34782.000000  0    3516039.697  -3951984.169   4403303.932
10 0 59328  34902.000000  0    3713805.396  -4481829.247   3675461.327
10 0 59328  35022.000000  0    3838032.987  -4936134.502   2882904.193
10 0 59328  35142.000000  0    3887943.065  -5305651.081   2039579.180
10 0 59328  35262.000000  0    3864213.798  -5582623.598   1160336.212
10 0 59328  35382.000000  0    3768943.265  -5760955.658    260660.847
10 0 59328  35502.000000  0    3605583.058  -5836343.155   -643605.059
10 0 59328  35622.000000  0    3378844.546  -5806373.596  -1536551.787
10 0 59328  35742.000000  0    3094578.185  -5670585.398  -2402490.362
10 0 59328  35862.000000  0    2759632.139  -5430488.774  -3226234.822
10 0 59328  35982.000000  0    2381691.813  -5089546.126  -3993373.521
10 0 59328  36102.000000  0    1969104.958  -4653113.424  -4690521.651
10 0 59328  36222.000000  0    1530698.154  -4128345.461  -5305550.357
10 0 59328  36342.000000  0    1075590.060  -3524068.445  -5827790.042
10 0 59328  36462.000000  0     613003.761  -2850623.435  -6248205.491
10 0 59328  36582.000000  0     152082.169  -2119683.998  -6559540.968
10 0 59328  36702.000000  0    -298289.087  -1344051.180  -6756434.330
10 0 59328  36822.000000  0    -729648.143   -537429.986  -6835499.943
10 0 59328  36942.000000  0   -1134111.144    285809.325  -6795380.194
10 0 59328  37062.000000  0   -1504512.884   1110880.905  -6636765.278
10 0 59328  37182.000000  0   -1834530.686   1922842.091  -6362382.536
10 0 59328  37302.000000  0   -2118790.176   2706857.048  -5976954.965
10 0 59328  37422.000000  0   -2352952.991   3448463.773  -5487129.679
10 0 59328  37542.000000  0   -2533783.526   4133839.439  -4901374.228
10 0 59328  37662.000000  0   -2659194.906   4750060.622  -4229841.962
10 0 59328  37782.000000  0   -2728271.859   5285352.310  -3484205.196
10 0 59328  37902.000000  0   -2741269.268   5729319.067  -2677460.125
10 0 59328  38022.000000  0   -2699587.394   6073156.565  -1823707.133
10 0 59328  38142.000000  0   -2605723.169   6309836.909   -937905.025
10 0 59328  38262.000000  0   -2463198.162   6434259.528    -35606.943
10 0 59328  38382.000000  0   -2276466.410   6443369.257    867316.628
10 0 59328  38502.000000  0   -2050801.207   6336233.662   1754968.251
10 0 59328  38622.000000  0   -1792163.422   6114073.319   2611714.053
10 0 59328  38742.000000  0   -1507057.095   5780249.062   3422466.771
99
